*******************************************************************************
Ephemeris / WWW_USER Mon Mar 24 06:39:53 2025 Pasadena, USA      / Horizons    
*******************************************************************************
Target body name: (2018 RD5)                      {source: JPL#11}
Center body name: Earth (399)                     {source: DE441}
Center-site name: Gemini South Obs., Cerro Pachon
*******************************************************************************
Start time      : A.D. 2018-Sep-20 22:46:00.0000 UT      
Stop  time      : A.D. 2018-Sep-21 10:25:00.0000 UT      
Step-size       : 1 minutes
*******************************************************************************
Target pole/equ : undefined
Target radii    : undefined                                                    
Center geodetic : 289.2634, -30.2406227, 2.71233  {E-lon(deg),Lat(deg),Alt(km)}
Center cylindric: 289.2634,5517.21435,-3194.81213 {E-lon(deg),Dxy(km),Dz(km)}
Center pole/equ : ITRF93                          {East-longitude positive}
Center radii    : 6378.137, 6378.137, 6356.752 km {Equator_a, b, pole_c}       
Target primary  : Sun
Vis. interferer : MOON (R_eq= 1737.400) km        {source: DE441}
Rel. light bend : Sun                             {source: DE441}
Rel. lght bnd GM: 1.3271E+11 km^3/s^2                                          
Small-body perts: Yes                             {source: SB441-N16}
Atmos refraction: NO (AIRLESS)
RA format       : HMS
Time format     : CAL 
Calendar mode   : Mixed Julian/Gregorian
RTS-only print  : NO       
EOP file        : eop.250321.p250617                                           
EOP coverage    : DATA-BASED 1962-JAN-20 TO 2025-MAR-21. PREDICTS-> 2025-JUN-16
Units conversion: 1 au= 149597870.700 km, c= 299792.458 km/s, 1 day= 86400.0 s 
Table cut-offs 1: Elevation (-90.0deg=NO ),Airmass (>38.000=NO), Daylight (YES)
Table cut-offs 2: Solar elongation (  0.0,180.0=NO ),Local Hour Angle( 0.0=NO )
Table cut-offs 3: RA/DEC angular rate (     0.0=NO )                           
*******************************************************************************
Initial IAU76/J2000 heliocentric ecliptic osculating elements (au, days, deg.):
  EPOCH=  2458378.5 ! 2018-Sep-17.00 (TDB)         Residual RMS= .55339        
   EC= .2891632988519429   QR= 1.009650912138325   TP= 2458360.6433297051      
   OM= 171.0145363394364   W=  163.7983400129293   IN= 8.474307805886117       
  Equivalent ICRF heliocentric cartesian coordinates (au, au/d):
   X= 1.017757009008053E+00  Y=-8.967367621791844E-02  Z=-4.840656937149759E-02
  VX= 3.309922676318766E-03 VY= 1.832358809606965E-02 VZ= 4.854018792897502E-03
Asteroid physical parameters (km, seconds, rotational period in hours):        
   GM= n.a.                RAD= n.a.               ROTPER= n.a.                
   H= 25.9                 G= .150                 B-V= n.a.                   
                           ALBEDO= n.a.            STYP= n.a.                  
*******************************************************************************
 Date__(UT)__HR:MN     R.A._________(ICRF)_________DEC
******************************************************
$$SOE
 2018-Sep-21 06:58  m  02 37 24.917456 -21 56 52.93765
 2018-Sep-21 06:59  m  02 37 25.116710 -21 56 55.44692
 2018-Sep-21 07:00  m  02 37 25.315910 -21 56 57.95433
 2018-Sep-21 07:01  m  02 37 25.515055 -21 57 00.45987
 2018-Sep-21 07:02  m  02 37 25.714148 -21 57 02.96354
 2018-Sep-21 07:03  m  02 37 25.913188 -21 57 05.46534
 2018-Sep-21 07:04  m  02 37 26.112179 -21 57 07.96527
 2018-Sep-21 07:05  m  02 37 26.311121 -21 57 10.46334
 2018-Sep-21 07:06  m  02 37 26.510014 -21 57 12.95953
 2018-Sep-21 07:07  m  02 37 26.708862 -21 57 15.45386
 2018-Sep-21 07:08  m  02 37 26.907664 -21 57 17.94631
 2018-Sep-21 07:09  m  02 37 27.106421 -21 57 20.43690
 2018-Sep-21 07:10  m  02 37 27.305137 -21 57 22.92561
 2018-Sep-21 07:11  m  02 37 27.503810 -21 57 25.41245
 2018-Sep-21 07:12  m  02 37 27.702444 -21 57 27.89743
 2018-Sep-21 07:13  m  02 37 27.901038 -21 57 30.38053
 2018-Sep-21 07:14  m  02 37 28.099595 -21 57 32.86176
 2018-Sep-21 07:15  m  02 37 28.298116 -21 57 35.34113
 2018-Sep-21 07:16  m  02 37 28.496601 -21 57 37.81862
 2018-Sep-21 07:17  m  02 37 28.695052 -21 57 40.29424
 2018-Sep-21 07:18  m  02 37 28.893470 -21 57 42.76799
 2018-Sep-21 07:19  m  02 37 29.091858 -21 57 45.23987
 2018-Sep-21 07:20  m  02 37 29.290215 -21 57 47.70988
 2018-Sep-21 07:21  t  02 37 29.488543 -21 57 50.17803
 2018-Sep-21 07:22  m  02 37 29.686843 -21 57 52.64430
 2018-Sep-21 07:23  m  02 37 29.885117 -21 57 55.10870
 2018-Sep-21 07:24  m  02 37 30.083366 -21 57 57.57124
 2018-Sep-21 07:25  m  02 37 30.281591 -21 58 00.03190
 2018-Sep-21 07:26  m  02 37 30.479794 -21 58 02.49070
 2018-Sep-21 07:27  m  02 37 30.677975 -21 58 04.94763
 2018-Sep-21 07:28  m  02 37 30.876136 -21 58 07.40269
 2018-Sep-21 07:29  m  02 37 31.074278 -21 58 09.85589
 2018-Sep-21 07:30  m  02 37 31.272403 -21 58 12.30722
 2018-Sep-21 07:31  m  02 37 31.470511 -21 58 14.75668
 2018-Sep-21 07:32  m  02 37 31.668605 -21 58 17.20428
 2018-Sep-21 07:33  m  02 37 31.866684 -21 58 19.65001
 2018-Sep-21 07:34  m  02 37 32.064751 -21 58 22.09388
 2018-Sep-21 07:35  m  02 37 32.262806 -21 58 24.53588
 2018-Sep-21 07:36  m  02 37 32.460852 -21 58 26.97602
 2018-Sep-21 07:37  m  02 37 32.658889 -21 58 29.41430
 2018-Sep-21 07:38  m  02 37 32.856918 -21 58 31.85071
 2018-Sep-21 07:39  m  02 37 33.054941 -21 58 34.28526
 2018-Sep-21 07:40  m  02 37 33.252958 -21 58 36.71796
 2018-Sep-21 07:41  m  02 37 33.450972 -21 58 39.14879
 2018-Sep-21 07:42  m  02 37 33.648984 -21 58 41.57776
 2018-Sep-21 07:43  m  02 37 33.846994 -21 58 44.00488
 2018-Sep-21 07:44  m  02 37 34.045004 -21 58 46.43014
 2018-Sep-21 07:45  m  02 37 34.243015 -21 58 48.85354
 2018-Sep-21 07:46  m  02 37 34.441028 -21 58 51.27509
 2018-Sep-21 07:47  m  02 37 34.639046 -21 58 53.69478
 2018-Sep-21 07:48  m  02 37 34.837068 -21 58 56.11262
 2018-Sep-21 07:49  m  02 37 35.035096 -21 58 58.52860
 2018-Sep-21 07:50  m  02 37 35.233132 -21 59 00.94274
 2018-Sep-21 07:51  m  02 37 35.431176 -21 59 03.35502
 2018-Sep-21 07:52  m  02 37 35.629230 -21 59 05.76545
 2018-Sep-21 07:53  m  02 37 35.827295 -21 59 08.17404
 2018-Sep-21 07:54  m  02 37 36.025373 -21 59 10.58077
 2018-Sep-21 07:55  m  02 37 36.223464 -21 59 12.98566
 2018-Sep-21 07:56  m  02 37 36.421570 -21 59 15.38871
 2018-Sep-21 07:57  m  02 37 36.619692 -21 59 17.78991
 2018-Sep-21 07:58  m  02 37 36.817832 -21 59 20.18927
 2018-Sep-21 07:59  m  02 37 37.015989 -21 59 22.58679
 2018-Sep-21 08:00  m  02 37 37.214167 -21 59 24.98246
 2018-Sep-21 08:01  m  02 37 37.412365 -21 59 27.37630
 2018-Sep-21 08:02  m  02 37 37.610586 -21 59 29.76831
 2018-Sep-21 08:03  m  02 37 37.808830 -21 59 32.15847
 2018-Sep-21 08:04  m  02 37 38.007099 -21 59 34.54680
 2018-Sep-21 08:05  m  02 37 38.205393 -21 59 36.93330
 2018-Sep-21 08:06  m  02 37 38.403715 -21 59 39.31797
 2018-Sep-21 08:07  m  02 37 38.602065 -21 59 41.70080
 2018-Sep-21 08:08  m  02 37 38.800444 -21 59 44.08181
 2018-Sep-21 08:09  m  02 37 38.998855 -21 59 46.46099
 2018-Sep-21 08:10  m  02 37 39.197297 -21 59 48.83834
 2018-Sep-21 08:11  m  02 37 39.395772 -21 59 51.21387
 2018-Sep-21 08:12  m  02 37 39.594282 -21 59 53.58758
 2018-Sep-21 08:13  m  02 37 39.792827 -21 59 55.95947
 2018-Sep-21 08:14  m  02 37 39.991410 -21 59 58.32953
 2018-Sep-21 08:15  m  02 37 40.190030 -22 00 00.69779
 2018-Sep-21 08:16  m  02 37 40.388689 -22 00 03.06422
 2018-Sep-21 08:17  m  02 37 40.587389 -22 00 05.42884
 2018-Sep-21 08:18  m  02 37 40.786130 -22 00 07.79165
 2018-Sep-21 08:19  m  02 37 40.984915 -22 00 10.15265
 2018-Sep-21 08:20  m  02 37 41.183743 -22 00 12.51184
 2018-Sep-21 08:21  m  02 37 41.382617 -22 00 14.86922
 2018-Sep-21 08:22  m  02 37 41.581536 -22 00 17.22480
 2018-Sep-21 08:23  m  02 37 41.780504 -22 00 19.57858
 2018-Sep-21 08:24  m  02 37 41.979521 -22 00 21.93056
 2018-Sep-21 08:25  m  02 37 42.178587 -22 00 24.28073
 2018-Sep-21 08:26  m  02 37 42.377705 -22 00 26.62911
 2018-Sep-21 08:27  m  02 37 42.576875 -22 00 28.97570
 2018-Sep-21 08:28  m  02 37 42.776098 -22 00 31.32049
 2018-Sep-21 08:29  m  02 37 42.975377 -22 00 33.66349
 2018-Sep-21 08:30  m  02 37 43.174711 -22 00 36.00471
 2018-Sep-21 08:31  m  02 37 43.374103 -22 00 38.34414
 2018-Sep-21 08:32  m  02 37 43.573552 -22 00 40.68178
 2018-Sep-21 08:33  m  02 37 43.773062 -22 00 43.01764
 2018-Sep-21 08:34  m  02 37 43.972632 -22 00 45.35172
 2018-Sep-21 08:35  m  02 37 44.172263 -22 00 47.68403
 2018-Sep-21 08:36  m  02 37 44.371958 -22 00 50.01456
 2018-Sep-21 08:37  m  02 37 44.571717 -22 00 52.34331
 2018-Sep-21 08:38  m  02 37 44.771541 -22 00 54.67030
 2018-Sep-21 08:39  m  02 37 44.971432 -22 00 56.99552
 2018-Sep-21 08:40  m  02 37 45.171391 -22 00 59.31897
 2018-Sep-21 08:41  m  02 37 45.371418 -22 01 01.64066
 2018-Sep-21 08:42  m  02 37 45.571515 -22 01 03.96058
 2018-Sep-21 08:43  m  02 37 45.771684 -22 01 06.27875
 2018-Sep-21 08:44  m  02 37 45.971924 -22 01 08.59516
 2018-Sep-21 08:45  m  02 37 46.172239 -22 01 10.90982
 2018-Sep-21 08:46  m  02 37 46.372627 -22 01 13.22273
 2018-Sep-21 08:47     02 37 46.573092 -22 01 15.53389
 2018-Sep-21 08:48     02 37 46.773633 -22 01 17.84331
 2018-Sep-21 08:49     02 37 46.974253 -22 01 20.15098
 2018-Sep-21 08:50     02 37 47.174951 -22 01 22.45691
 2018-Sep-21 08:51     02 37 47.375730 -22 01 24.76110
 2018-Sep-21 08:52     02 37 47.576591 -22 01 27.06356
 2018-Sep-21 08:53     02 37 47.777534 -22 01 29.36428
 2018-Sep-21 08:54     02 37 47.978561 -22 01 31.66328
 2018-Sep-21 08:55     02 37 48.179672 -22 01 33.96055
 2018-Sep-21 08:56     02 37 48.380870 -22 01 36.25609
 2018-Sep-21 08:57     02 37 48.582154 -22 01 38.54991
 2018-Sep-21 08:58     02 37 48.783527 -22 01 40.84202
 2018-Sep-21 08:59     02 37 48.984989 -22 01 43.13241
 2018-Sep-21 09:00     02 37 49.186542 -22 01 45.42108
